start=new Date('2023-06-02T00:00:00.000Z').valueOf();
sats=[{"MEAN_MOTION_DDOT":"0.0000000000000","PERIOD":"95.592","ARG_OF_PERICENTER":"99.5509","FILE":"3922718","ELEMENT_SET_NO":"999","TIME_SYSTEM":"UTC","CLASSIFICATION_TYPE":"U","COUNTRY_CODE":"US","OBJECT_NAME":"STARLINK-1903","SITE":"AFETR","APOAPSIS":"547.950","INCLINATION":"53.0524","LAUNCH_DATE":"2020-10-24","TLE_LINE1":"1 46764U 20074AB  23152.86762476  .00004596  00000-0  32716-3 0  9995","EPHEMERIS_TYPE":"0","OBJECT_TYPE":"PAYLOAD","MEAN_ELEMENT_THEORY":"SGP4","REF_FRAME":"TEME","BSTAR":"0.00032716000000","MEAN_ANOMALY":"260.5603","PERIAPSIS":"546.442","NORAD_CAT_ID":"46764","ECCENTRICITY":"0.00010890","TLE_LINE2":"2 46764  53.0524 198.8616 0001089  99.5509 260.5603 15.06405702143967","RCS_SIZE":"LARGE","DECAY_DATE":null,"SEMIMAJOR_AXIS":"6925.331","REV_AT_EPOCH":"14396","MEAN_MOTION_DOT":"0.00004596","GP_ID":"232994025","CENTER_NAME":"EARTH","RA_OF_ASC_NODE":"198.8616","MEAN_MOTION":"15.06405702","EPOCH":"2023-06-01T20:49:22.779264","OBJECT_ID":"2020-074AB"},{"ARG_OF_PERICENTER":"54.5270","PERIOD":"95.592","TIME_SYSTEM":"UTC","FILE":"3922718","ELEMENT_SET_NO":"999","MEAN_MOTION_DDOT":"0.0000000000000","COUNTRY_CODE":"US","OBJECT_NAME":"STARLINK-1906","CLASSIFICATION_TYPE":"U","LAUNCH_DATE":"2020-10-24","INCLINATION":"53.0517","SITE":"AFETR","APOAPSIS":"548.161","OBJECT_TYPE":"PAYLOAD","MEAN_ELEMENT_THEORY":"SGP4","TLE_LINE1":"1 46765U 20074AC  23152.85656863  .00004060  00000-0  29124-3 0  9992","EPHEMERIS_TYPE":"0","REF_FRAME":"TEME","MEAN_ANOMALY":"305.5848","PERIAPSIS":"546.245","BSTAR":"0.00029124000000","DECAY_DATE":null,"RCS_SIZE":"LARGE","ECCENTRICITY":"0.00013830","NORAD_CAT_ID":"46765","TLE_LINE2":"2 46765  53.0517 198.9144 0001383  54.5270 305.5848 15.06403492143954","GP_ID":"232995276","REV_AT_EPOCH":"14395","SEMIMAJOR_AXIS":"6925.338","MEAN_MOTION_DOT":"0.00004060","OBJECT_ID":"2020-074AC","CENTER_NAME":"EARTH","EPOCH":"2023-06-01T20:33:27.529632","MEAN_MOTION":"15.06403492","RA_OF_ASC_NODE":"198.9144"},{"BSTAR":"0.00028322000000","MEAN_ANOMALY":"275.5394","PERIAPSIS":"546.393","NORAD_CAT_ID":"46766","ECCENTRICITY":"0.00011530","TLE_LINE2":"2 46766  53.0528 198.9471 0001153  84.5726 275.5394 15.06407270143965","RCS_SIZE":"LARGE","DECAY_DATE":null,"SEMIMAJOR_AXIS":"6925.326","REV_AT_EPOCH":"14396","MEAN_MOTION_DOT":"0.00003940","GP_ID":"232995527","CENTER_NAME":"EARTH","RA_OF_ASC_NODE":"198.9471","EPOCH":"2023-06-01T20:22:50.117952","MEAN_MOTION":"15.06407270","OBJECT_ID":"2020-074AD","MEAN_MOTION_DDOT":"0.0000000000000","PERIOD":"95.592","ARG_OF_PERICENTER":"84.5726","ELEMENT_SET_NO":"999","FILE":"3922718","TIME_SYSTEM":"UTC","CLASSIFICATION_TYPE":"U","COUNTRY_CODE":"US","OBJECT_NAME":"STARLINK-1916","SITE":"AFETR","APOAPSIS":"547.990","INCLINATION":"53.0528","LAUNCH_DATE":"2020-10-24","TLE_LINE1":"1 46766U 20074AD  23152.84919118  .00003940  00000-0  28322-3 0  9992","EPHEMERIS_TYPE":"0","MEAN_ELEMENT_THEORY":"SGP4","OBJECT_TYPE":"PAYLOAD","REF_FRAME":"TEME"},{"CLASSIFICATION_TYPE":"U","COUNTRY_CODE":"US","OBJECT_NAME":"STARLINK-1917","ARG_OF_PERICENTER":"82.7530","PERIOD":"95.592","TIME_SYSTEM":"UTC","ELEMENT_SET_NO":"999","FILE":"3922599","MEAN_MOTION_DDOT":"0.0000000000000","MEAN_ELEMENT_THEORY":"SGP4","OBJECT_TYPE":"PAYLOAD","TLE_LINE1":"1 46767U 20074AE  23152.34791043  .00002570  00000-0  19138-3 0  9996","EPHEMERIS_TYPE":"0","REF_FRAME":"TEME","LAUNCH_DATE":"2020-10-24","INCLINATION":"53.0547","SITE":"AFETR","APOAPSIS":"548.069","RCS_SIZE":"LARGE","DECAY_DATE":null,"ECCENTRICITY":"0.00012170","NORAD_CAT_ID":"46767","TLE_LINE2":"2 46767  53.0547 201.2005 0001217  82.7530 277.3597 15.06395922143899","MEAN_ANOMALY":"277.3597","PERIAPSIS":"546.383","BSTAR":"0.00019138000000","OBJECT_ID":"2020-074AE","CENTER_NAME":"EARTH","EPOCH":"2023-06-01T08:20:59.461152","MEAN_MOTION":"15.06395922","RA_OF_ASC_NODE":"201.2005","GP_ID":"232972088","REV_AT_EPOCH":"14389","SEMIMAJOR_AXIS":"6925.361","MEAN_MOTION_DOT":"0.00002570"},{"MEAN_MOTION_DOT":"0.00002070","SEMIMAJOR_AXIS":"6925.368","REV_AT_EPOCH":"14388","GP_ID":"232958254","RA_OF_ASC_NODE":"201.1824","MEAN_MOTION":"15.06393613","EPOCH":"2023-06-01T08:26:18.456000","CENTER_NAME":"EARTH","OBJECT_ID":"2020-074AF","BSTAR":"0.00015782000000","PERIAPSIS":"546.399","MEAN_ANOMALY":"288.4654","TLE_LINE2":"2 46768  53.0529 201.1824 0001205  71.6466 288.4654 15.06393613143881","NORAD_CAT_ID":"46768","ECCENTRICITY":"0.00012050","DECAY_DATE":null,"RCS_SIZE":"LARGE","APOAPSIS":"548.068","SITE":"AFETR","INCLINATION":"53.0529","LAUNCH_DATE":"2020-10-24","REF_FRAME":"TEME","EPHEMERIS_TYPE":"0","TLE_LINE1":"1 46768U 20074AF  23152.35160250  .00002070  00000-0  15782-3 0  9994","MEAN_ELEMENT_THEORY":"SGP4","OBJECT_TYPE":"PAYLOAD","MEAN_MOTION_DDOT":"0.0000000000000","FILE":"3922365","ELEMENT_SET_NO":"999","TIME_SYSTEM":"UTC","PERIOD":"95.593","ARG_OF_PERICENTER":"71.6466","COUNTRY_CODE":"US","OBJECT_NAME":"STARLINK-1918","CLASSIFICATION_TYPE":"U"},{"PERIAPSIS":"546.463","MEAN_ANOMALY":"281.6233","BSTAR":"0.00018835000000","DECAY_DATE":null,"RCS_SIZE":"LARGE","TLE_LINE2":"2 46770  53.0526 199.6094 0001075  78.4876 281.6233 15.06401876143942","NORAD_CAT_ID":"46770","ECCENTRICITY":"0.00010750","GP_ID":"232994777","MEAN_MOTION_DOT":"0.00002525","SEMIMAJOR_AXIS":"6925.343","REV_AT_EPOCH":"14394","OBJECT_ID":"2020-074AH","RA_OF_ASC_NODE":"199.6094","EPOCH":"2023-06-01T19:45:46.968192","MEAN_MOTION":"15.06401876","CENTER_NAME":"EARTH","FILE":"3922718","ELEMENT_SET_NO":"999","TIME_SYSTEM":"UTC","PERIOD":"95.592","ARG_OF_PERICENTER":"78.4876","MEAN_MOTION_DDOT":"0.0000000000000","OBJECT_NAME":"STARLINK-1932","COUNTRY_CODE":"US","CLASSIFICATION_TYPE":"U","INCLINATION":"53.0526","LAUNCH_DATE":"2020-10-24","APOAPSIS":"547.952","SITE":"AFETR","REF_FRAME":"TEME","EPHEMERIS_TYPE":"0","TLE_LINE1":"1 46770U 20074AH  23152.82346028  .00002525  00000-0  18835-3 0  9995","MEAN_ELEMENT_THEORY":"SGP4","OBJECT_TYPE":"PAYLOAD"},{"REF_FRAME":"TEME","MEAN_ELEMENT_THEORY":"SGP4","OBJECT_TYPE":"PAYLOAD","EPHEMERIS_TYPE":"0","TLE_LINE1":"1 46772U 20074AK  23152.82244645  .00002898  00000-0  21336-3 0  9992","LAUNCH_DATE":"2020-10-24","INCLINATION":"53.0524","APOAPSIS":"547.954","SITE":"AFETR","COUNTRY_CODE":"US","CLASSIFICATION_TYPE":"U","OBJECT_NAME":"STARLINK-1936","TIME_SYSTEM":"UTC","FILE":"3922718","ELEMENT_SET_NO":"999","ARG_OF_PERICENTER":"78.2652","PERIOD":"95.592","MEAN_MOTION_DDOT":"0.0000000000000","OBJECT_ID":"2020-074AK","MEAN_MOTION":"15.06402411","EPOCH":"2023-06-01T19:44:19.373280","RA_OF_ASC_NODE":"199.0547","CENTER_NAME":"EARTH","GP_ID":"232995028","MEAN_MOTION_DOT":"0.00002898","REV_AT_EPOCH":"14395","SEMIMAJOR_AXIS":"6925.341","DECAY_DATE":null,"RCS_SIZE":"LARGE","TLE_LINE2":"2 46772  53.0524 199.0547 0001080  78.2652 281.8458 15.06402411143953","ECCENTRICITY":"0.00010800","NORAD_CAT_ID":"46772","PERIAPSIS":"546.458","MEAN_ANOMALY":"281.8458","BSTAR":"0.00021336000000"},{"COUNTRY_CODE":"US","OBJECT_NAME":"STARLINK-1798","CLASSIFICATION_TYPE":"U","TIME_SYSTEM":"UTC","ELEMENT_SET_NO":"999","FILE":"3922365","ARG_OF_PERICENTER":"85.8172","PERIOD":"95.592","MEAN_MOTION_DDOT":"0.0000000000000","REF_FRAME":"TEME","MEAN_ELEMENT_THEORY":"SGP4","OBJECT_TYPE":"PAYLOAD","TLE_LINE1":"1 46779U 20074AS  23152.38891582  .00001777  00000-0  13819-3 0  9990","EPHEMERIS_TYPE":"0","LAUNCH_DATE":"2020-10-24","INCLINATION":"53.0530","APOAPSIS":"547.892","SITE":"AFETR","DECAY_DATE":null,"RCS_SIZE":"LARGE","TLE_LINE2":"2 46779  53.0530 176.0091 0000960  85.8172 274.2926 15.06395573144231","ECCENTRICITY":"0.00009600","NORAD_CAT_ID":"46779","PERIAPSIS":"546.562","MEAN_ANOMALY":"274.2926","BSTAR":"0.00013819000000","OBJECT_ID":"2020-074AS","MEAN_MOTION":"15.06395573","EPOCH":"2023-06-01T09:20:02.326848","RA_OF_ASC_NODE":"176.0091","CENTER_NAME":"EARTH","GP_ID":"232959501","MEAN_MOTION_DOT":"0.00001777","REV_AT_EPOCH":"14423","SEMIMAJOR_AXIS":"6925.362"},{"REF_FRAME":"TEME","EPHEMERIS_TYPE":"0","TLE_LINE1":"1 46780U 20074AT  23152.37786350  .00000938  00000-0  81878-4 0  9996","MEAN_ELEMENT_THEORY":"SGP4","OBJECT_TYPE":"PAYLOAD","APOAPSIS":"547.959","SITE":"AFETR","INCLINATION":"53.0533","LAUNCH_DATE":"2020-10-24","CLASSIFICATION_TYPE":"U","COUNTRY_CODE":"US","OBJECT_NAME":"STARLINK-1832","MEAN_MOTION_DDOT":"0.0000000000000","ELEMENT_SET_NO":"999","FILE":"3922365","TIME_SYSTEM":"UTC","PERIOD":"95.593","ARG_OF_PERICENTER":"80.0342","RA_OF_ASC_NODE":"176.0591","EPOCH":"2023-06-01T09:04:07.406400","MEAN_MOTION":"15.06391309","CENTER_NAME":"EARTH","OBJECT_ID":"2020-074AT","MEAN_MOTION_DOT":"0.00000938","SEMIMAJOR_AXIS":"6925.375","REV_AT_EPOCH":"14423","GP_ID":"232958755","TLE_LINE2":"2 46780  53.0533 176.0591 0001038  80.0342 280.0764 15.06391309144232","NORAD_CAT_ID":"46780","ECCENTRICITY":"0.00010380","RCS_SIZE":"LARGE","DECAY_DATE":null,"BSTAR":"0.00008187800000","PERIAPSIS":"546.521","MEAN_ANOMALY":"280.0764"},{"REF_FRAME":"TEME","TLE_LINE1":"1 46781U 20074AU  23152.32902280  .00001228  00000-0  10132-3 0  9991","EPHEMERIS_TYPE":"0","OBJECT_TYPE":"PAYLOAD","MEAN_ELEMENT_THEORY":"SGP4","APOAPSIS":"548.094","SITE":"AFETR","INCLINATION":"53.0539","LAUNCH_DATE":"2020-10-24","COUNTRY_CODE":"US","OBJECT_NAME":"STARLINK-1834","CLASSIFICATION_TYPE":"U","MEAN_MOTION_DDOT":"0.0000000000000","FILE":"3922365","ELEMENT_SET_NO":"999","TIME_SYSTEM":"UTC","PERIOD":"95.593","ARG_OF_PERICENTER":"91.0492","RA_OF_ASC_NODE":"186.2811","MEAN_MOTION":"15.06388109","EPOCH":"2023-06-01T07:53:47.569920","CENTER_NAME":"EARTH","OBJECT_ID":"2020-074AU","MEAN_MOTION_DOT":"0.00001228","SEMIMAJOR_AXIS":"6925.385","REV_AT_EPOCH":"14409","GP_ID":"232958505","TLE_LINE2":"2 46781  53.0539 186.2811 0001219  91.0492 269.0636 15.06388109144099","NORAD_CAT_ID":"46781","ECCENTRICITY":"0.00012190","DECAY_DATE":null,"RCS_SIZE":"LARGE","BSTAR":"0.00010132000000","PERIAPSIS":"546.406","MEAN_ANOMALY":"269.0636"}];
